{
  "type": "FeatureCollection",
  "features": [
    {
      "type": "Feature",
      "properties": {
        "norad_id": 30656,
        "name": "FENGYUN 1C DEB",
        "group": "fengyun-1c-debris",
        "lat": 16.895340154094143,
        "lon": -8.5239066621315,
        "alt_km": 744.3221749869899,
        "timestamp": "2025-12-20T03:42:47.670980+00:00",
        "meta_object_name": "FENGYUN 1C DEB",
        "meta_object_id": "1999-025APN",
        "meta_epoch": "2025-12-19T16:59:51.167904",
        "meta_mean_motion": 14.45435506,
        "meta_eccentricity": 0.0030137,
        "meta_inclination": 99.0174,
        "meta_ra_of_asc_node": 168.2375,
        "meta_arg_of_pericenter": 65.2514,
        "meta_mean_anomaly": 295.1806,
        "meta_ephemeris_type": 0,
        "meta_classification_type": "U",
        "meta_norad_cat_id": 30656,
        "meta_element_set_no": 999,
        "meta_rev_at_epoch": 97186,
        "meta_bstar": 0.0016303,
        "meta_mean_motion_dot": 5.727e-05,
        "meta_mean_motion_ddot": 0,
        "tle_line1": "1 30656U 99025APN 25353.70823111  .00005727  00000+0  16303-2 0  9991",
        "tle_line2": "2 30656  99.0174 168.2375 0030137  65.2514 295.1806 14.45435506971860"
      },
      "geometry": {
        "type": "Point",
        "coordinates": [
          -8.5239066621315,
          16.895340154094143
        ]
      }
    },
    {
      "type": "Feature",
      "properties": {
        "norad_id": 30657,
        "name": "FENGYUN 1C DEB",
        "group": "fengyun-1c-debris",
        "lat": 77.26723877899056,
        "lon": -44.104277184070746,
        "alt_km": 764.3563760243751,
        "timestamp": "2025-12-20T03:42:47.670990+00:00",
        "meta_object_name": "FENGYUN 1C DEB",
        "meta_object_id": "1999-025APP",
        "meta_epoch": "2025-12-19T05:41:15.364032",
        "meta_mean_motion": 14.38674408,
        "meta_eccentricity": 0.0016426,
        "meta_inclination": 98.8347,
        "meta_ra_of_asc_node": 91.4556,
        "meta_arg_of_pericenter": 323.2869,
        "meta_mean_anomaly": 65.3142,
        "meta_ephemeris_type": 0,
        "meta_classification_type": "U",
        "meta_norad_cat_id": 30657,
        "meta_element_set_no": 999,
        "meta_rev_at_epoch": 97326,
        "meta_bstar": 0.001503,
        "meta_mean_motion_dot": 4.571e-05,
        "meta_mean_motion_ddot": 0,
        "tle_line1": "1 30657U 99025APP 25353.23698338  .00004571  00000+0  15030-2 0  9993",
        "tle_line2": "2 30657  98.8347  91.4556 0016426 323.2869  65.3142 14.38674408973267"
      },
      "geometry": {
        "type": "Point",
        "coordinates": [
          -44.104277184070746,
          77.26723877899056
        ]
      }
    },
    {
      "type": "Feature",
      "properties": {
        "norad_id": 30658,
        "name": "FENGYUN 1C DEB",
        "group": "fengyun-1c-debris",
        "lat": 46.12151590192939,
        "lon": 17.001630060709335,
        "alt_km": 1061.0849213579077,
        "timestamp": "2025-12-20T03:42:47.670999+00:00",
        "meta_object_name": "FENGYUN 1C DEB",
        "meta_object_id": "1999-025APQ",
        "meta_epoch": "2025-12-18T13:23:50.214912",
        "meta_mean_motion": 13.87228138,
        "meta_eccentricity": 0.01842986,
        "meta_inclination": 98.4389,
        "meta_ra_of_asc_node": 24.4397,
        "meta_arg_of_pericenter": 211.7114,
        "meta_mean_anomaly": 147.2839,
        "meta_ephemeris_type": 0,
        "meta_classification_type": "U",
        "meta_norad_cat_id": 30658,
        "meta_element_set_no": 999,
        "meta_rev_at_epoch": 94765,
        "meta_bstar": 0.001331943,
        "meta_mean_motion_dot": 1.751e-05,
        "meta_mean_motion_ddot": 0,
        "tle_line1": "1 30658U 99025APQ 25352.55822008  .00001751  00000+0  13319-2 0  9996",
        "tle_line2": "2 30658  98.4389  24.4397 0184298 211.7114 147.2839 13.87228138947651"
      },
      "geometry": {
        "type": "Point",
        "coordinates": [
          17.001630060709335,
          46.12151590192939
        ]
      }
    },
    {
      "type": "Feature",
      "properties": {
        "norad_id": 30660,
        "name": "FENGYUN 1C DEB",
        "group": "fengyun-1c-debris",
        "lat": -61.57245605136266,
        "lon": 106.13698322393027,
        "alt_km": 519.465299584981,
        "timestamp": "2025-12-20T03:42:47.671010+00:00",
        "meta_object_name": "FENGYUN 1C DEB",
        "meta_object_id": "1999-025APS",
        "meta_epoch": "2025-12-19T05:31:15.898368",
        "meta_mean_motion": 14.87610731,
        "meta_eccentricity": 0.0136585,
        "meta_inclination": 98.1396,
        "meta_ra_of_asc_node": 89.8573,
        "meta_arg_of_pericenter": 313.222,
        "meta_mean_anomaly": 75.5216,
        "meta_ephemeris_type": 0,
        "meta_classification_type": "U",
        "meta_norad_cat_id": 30660,
        "meta_element_set_no": 999,
        "meta_rev_at_epoch": 881,
        "meta_bstar": 0.00045224,
        "meta_mean_motion_dot": 4.815e-05,
        "meta_mean_motion_ddot": 0,
        "tle_line1": "1 30660U 99025APS 25353.23004512  .00004815  00000+0  45224-3 0  9992",
        "tle_line2": "2 30660  98.1396  89.8573 0136585 313.2220  75.5216 14.87610731  8815"
      },
      "geometry": {
        "type": "Point",
        "coordinates": [
          106.13698322393027,
          -61.57245605136266
        ]
      }
    },
    {
      "type": "Feature",
      "properties": {
        "norad_id": 30661,
        "name": "FENGYUN 1C DEB",
        "group": "fengyun-1c-debris",
        "lat": 16.902052741895577,
        "lon": 167.4681167204925,
        "alt_km": 718.7469986684373,
        "timestamp": "2025-12-20T03:42:47.671020+00:00",
        "meta_object_name": "FENGYUN 1C DEB",
        "meta_object_id": "1999-025APT",
        "meta_epoch": "2025-12-19T10:44:17.431008",
        "meta_mean_motion": 14.21146014,
        "meta_eccentricity": 0.0144508,
        "meta_inclination": 99.4871,
        "meta_ra_of_asc_node": 169.6213,
        "meta_arg_of_pericenter": 26.7747,
        "meta_mean_anomaly": 334.0794,
        "meta_ephemeris_type": 0,
        "meta_classification_type": "U",
        "meta_norad_cat_id": 30661,
        "meta_element_set_no": 999,
        "meta_rev_at_epoch": 97997,
        "meta_bstar": 9.1614e-05,
        "meta_mean_motion_dot": 1.71e-06,
        "meta_mean_motion_ddot": 0,
        "tle_line1": "1 30661U 99025APT 25353.44742397  .00000171  00000+0  91614-4 0  9992",
        "tle_line2": "2 30661  99.4871 169.6213 0144508  26.7747 334.0794 14.21146014979974"
      },
      "geometry": {
        "type": "Point",
        "coordinates": [
          167.4681167204925,
          16.902052741895577
        ]
      }
    },
    {
      "type": "Feature",
      "properties": {
        "norad_id": 30662,
        "name": "FENGYUN 1C DEB",
        "group": "fengyun-1c-debris",
        "lat": 77.8709866529864,
        "lon": -81.47995804754444,
        "alt_km": 830.9761460643485,
        "timestamp": "2025-12-20T03:42:47.671030+00:00",
        "meta_object_name": "FENGYUN 1C DEB",
        "meta_object_id": "1999-025APU",
        "meta_epoch": "2025-12-17T02:47:53.975616",
        "meta_mean_motion": 14.2238731,
        "meta_eccentricity": 0.00333112,
        "meta_inclination": 99.053,
        "meta_ra_of_asc_node": 47.5109,
        "meta_arg_of_pericenter": 258.3821,
        "meta_mean_anomaly": 131.5027,
        "meta_ephemeris_type": 0,
        "meta_classification_type": "U",
        "meta_norad_cat_id": 30662,
        "meta_element_set_no": 999,
        "meta_rev_at_epoch": 96701,
        "meta_bstar": 0.0012023141,
        "meta_mean_motion_dot": 2.645e-05,
        "meta_mean_motion_ddot": 0,
        "tle_line1": "1 30662U 99025APU 25351.11659694  .00002645  00000+0  12023-2 0  9995",
        "tle_line2": "2 30662  99.0530  47.5109 0033311 258.3821 131.5027 14.22387310967014"
      },
      "geometry": {
        "type": "Point",
        "coordinates": [
          -81.47995804754444,
          77.8709866529864
        ]
      }
    },
    {
      "type": "Feature",
      "properties": {
        "norad_id": 30663,
        "name": "FENGYUN 1C DEB",
        "group": "fengyun-1c-debris",
        "lat": -34.5728380899824,
        "lon": 83.87210495652634,
        "alt_km": 1202.1390094668122,
        "timestamp": "2025-12-20T03:42:47.671040+00:00",
        "meta_object_name": "FENGYUN 1C DEB",
        "meta_object_id": "1999-025APV",
        "meta_epoch": "2025-12-19T12:10:57.460800",
        "meta_mean_motion": 13.23166594,
        "meta_eccentricity": 0.0648755,
        "meta_inclination": 99.3036,
        "meta_ra_of_asc_node": 269.7768,
        "meta_arg_of_pericenter": 120.1196,
        "meta_mean_anomaly": 246.5853,
        "meta_ephemeris_type": 0,
        "meta_classification_type": "U",
        "meta_norad_cat_id": 30663,
        "meta_element_set_no": 999,
        "meta_rev_at_epoch": 89137,
        "meta_bstar": 0.0017592,
        "meta_mean_motion_dot": 2.27e-05,
        "meta_mean_motion_ddot": 0,
        "tle_line1": "1 30663U 99025APV 25353.50760950  .00002270  00000+0  17592-2 0  9999",
        "tle_line2": "2 30663  99.3036 269.7768 0648755 120.1196 246.5853 13.23166594891371"
      },
      "geometry": {
        "type": "Point",
        "coordinates": [
          83.87210495652634,
          -34.5728380899824
        ]
      }
    }
  ]
}